0 SL-12 R/B(2)
1 33111U 08033D   13280.94818342  .00000042  00000-0  10000-3 0  7017
2 33111 002.1776 057.5747 0029540 233.6515 126.3215 01.00277780 19332
0 SL-12 R/B(2)
1 33111U 08033D   13282.94382655  .00000000  00000-0  10000-3 0  7038
2 33111 002.1858 058.0523 0029970 233.0812 126.8503 01.00274982 19350
0 SL-12 R/B(2)
1 33111U 08033D   13283.93963254  .00000032  00000-0  10000-3 0  7022
2 33111 002.1829 057.5537 0029522 233.7612 126.1695 01.00278632 19367
0 SL-12 R/B(2)
1 33111U 08033D   13286.93152141  .00000026  00000-0  10000-3 0  7034
2 33111 002.1895 057.6062 0029657 233.6336 126.3447 01.00279436 19398
0 SL-12 R/B(2)
1 33111U 08033D   13289.92297458  .00000027  00000-0  10000-3 0  7049
2 33111 002.1958 057.6295 0029696 233.5970 126.3115 01.00280262 19427
0 SL-12 R/B(2)
1 33111U 08033D   13292.91410972  .00000031  00000-0  10000-3 0  7056
2 33111 002.2018 057.6329 0029708 233.6302 126.1232 01.00281090 19458
